CSS (TIANHE)            
1 48274U 21035A   26203.45756980  .00010144  00000+0  13442-3 0  9999
2 48274  41.4671 107.8074 0001199 305.3687  54.7038 15.58249100298673
